[{"OBJECT_NAME":"TIANPING 2C","OBJECT_ID":"2022-032D","EPOCH":"2026-03-09T22:24:23.522112","MEAN_MOTION":15.10225163,"ECCENTRICITY":0.00079422,"INCLINATION":97.5961,"RA_OF_ASC_NODE":122.1196,"ARG_OF_PERICENTER":128.8925,"MEAN_ANOMALY":231.3013,"EPHEMERIS_TYPE":0,"CLASSIFICATION_TYPE":"U","NORAD_CAT_ID":52156,"ELEMENT_SET_NO":999,"REV_AT_EPOCH":21586,"BSTAR":0.00036090623,"MEAN_MOTION_DOT":5.841e-5,"MEAN_MOTION_DDOT":0},{"OBJECT_NAME":"STARLINK-6265","OBJECT_ID":"2023-065BG","EPOCH":"2026-03-09T22:00:01.999584","MEAN_MOTION":15.1201219,"ECCENTRICITY":0.00014534,"INCLINATION":43.0004,"RA_OF_ASC_NODE":221.2056,"ARG_OF_PERICENTER":287.4514,"MEAN_ANOMALY":284.6853,"EPHEMERIS_TYPE":0,"CLASSIFICATION_TYPE":"U","NORAD_CAT_ID":56557,"ELEMENT_SET_NO":999,"REV_AT_EPOCH":557,"BSTAR":0.0051206166,"MEAN_MOTION_DOT":0.00090421,"MEAN_MOTION_DDOT":0}]
